NUSAT-50 (NANCY ROMAN)  
1 60493U 24149AB  26068.80227738  .00012094  00000+0  42252-3 0  9994
2 60493  97.3817 150.7693 0002523 238.0469 122.0527 15.29713355 86930
STARLINK-33765          
1 63473U 25070P   26068.54902246  .00024286  00000+0  88912-3 0  9993
2 63473  42.9956 260.6993 0000930 247.9852 112.0901 15.27581282 52950
